[{"id":"40044","name":"LEMUR-1","tle1":"1 40044U 14033AL  26176.04143104  .00001756  00000+0  20650-3 0  9996","tle2":"2 40044  97.7884 325.6722 0049342  53.5333 307.0414 14.85272967646633"},{"id":"42837","name":"LEMUR-2-GREENBERG","tle1":"1 42837U 17042N   26176.25457678  .00020069  00000+0  65959-3 0  9997","tle2":"2 42837  97.3821 356.8433 0007765 343.5584  16.5404 15.31554481489621"},{"id":"42838","name":"LEMUR-2-ANDIS","tle1":"1 42838U 17042P   26175.93932699  .00023927  00000+0  70234-3 0  9991","tle2":"2 42838  97.3683 356.7406 0007560 342.5327  17.5655 15.35122839489647"},{"id":"42839","name":"LEMUR-2-MONSON","tle1":"1 42839U 17042Q   26176.01898653  .00017170  00000+0  62624-3 0  9990","tle2":"2 42839  97.4082 356.5692 0005549 335.7965  24.3013 15.28209666489363"},{"id":"42840","name":"LEMUR-2-FURIAUS","tle1":"1 42840U 17042R   26176.25400625  .00021305  00000+0  72330-3 0  9996","tle2":"2 42840  97.3771 354.7798 0007617  43.2444 316.9393 15.30493444489449"},{"id":"42841","name":"LEMUR-2-PETERG","tle1":"1 42841U 17042S   26176.25443300  .00029307  00000+0  88553-3 0  9998","tle2":"2 42841  97.3993   1.2992 0002714 319.3356  40.7683 15.34191709489670"},{"id":"42842","name":"LEMUR-2-DEMBITZ","tle1":"1 42842U 17042T   26175.75065931  .00016037  00000+0  54555-3 0  9994","tle2":"2 42842  97.3826 357.3094 0006077   1.9786 358.1478 15.30498197489508"},{"id":"42845","name":"LEMUR-2-ZACHARY","tle1":"1 42845U 17042W   26176.25686293  .00058449  00000+0  10053-2 0  9990","tle2":"2 42845  97.3595   8.0684 0002379 355.0680   5.0548 15.50918399490451"},{"id":"48269","name":"LEMUR-2-AMANDA-SVANTE","tle1":"1 48269U 21034B   26176.18264424  .00040024  00000+0  11863-2 0  9992","tle2":"2 48269  97.5760 254.6807 0003133 186.1710 173.9495 15.34732723282288"},{"id":"48273","name":"LEMUR-2-SPECIAL-K","tle1":"1 48273U 21034F   26176.20317842  .00201266  00000+0  18743-2 0  9994","tle2":"2 48273  97.5650 263.6529 0004938 222.4622 137.6256 15.66721021282941"},{"id":"56970","name":"LEMUR-2-EMBRIONOVIS","tle1":"1 56970U 23084AQ  26176.14111031  .00016063  00000+0  43505-3 0  9993","tle2":"2 56970  97.6292 320.6469 0007463 287.0247  73.0179 15.37730349168907"},{"id":"57391","name":"LEMUR-2-DEVERILL-M-T","tle1":"1 57391U 23100F   26176.03220507  .00029313  00000+0  73258-3 0  9997","tle2":"2 57391  99.4472 217.0572 0005648  23.0899 337.0593 15.40105639162452"},{"id":"58259","name":"LEMUR-2-BASS","tle1":"1 58259U 23174D   26176.18587398  .00020799  00000+0  46742-3 0  9999","tle2":"2 58259  97.3851 261.0108 0008106 137.7069 222.4805 15.43338546146590"},{"id":"58336","name":"LEMUR-2-JK0903EM1407","tle1":"1 58336U 23174CJ  26176.20390868  .00032740  00000+0  54297-3 0  9995","tle2":"2 58336  97.3929 266.9010 0005225  96.7387 263.4460 15.52060153146974"},{"id":"58340","name":"LEMUR-2-MJR092620","tle1":"1 58340U 23174CN  26176.25465256  .00023413  00000+0  49476-3 0  9999","tle2":"2 58340  97.3979 266.4330 0006900  94.2444 265.9594 15.45150004146895"},{"id":"58899","name":"LEMUR-2-NIMBUS2000","tle1":"1 58899U 24022A   26176.13532410  .00026803  00000+0  66487-3 0  9992","tle2":"2 58899  97.4109  26.2373 0010321  91.8550 268.3879 15.40290453133495"},{"id":"58900","name":"LEMUR-2-VALHALLA","tle1":"1 58900U 24022B   26176.13336812  .00019558  00000+0  49244-3 0  9994","tle2":"2 58900  97.4105  26.2216 0010813  88.0095 272.2389 15.39892857133492"},{"id":"58903","name":"LEMUR-2-CAEL","tle1":"1 58903U 24022E   26176.07151398  .00020671  00000+0  49854-3 0  9999","tle2":"2 58903  97.4088  27.1089 0009030  74.2440 285.9802 15.41208734133559"},{"id":"59146","name":"LEMUR-2-JOHNNYTRUONG","tle1":"1 59146U 24043BA  26176.22851927  .00049404  00000+0  58656-3 0  9999","tle2":"2 59146  97.5374 328.4331 0004865 152.5374 207.6141 15.61030812129297"},{"id":"60471","name":"LEMUR-2-TOMATOKECHUP","tle1":"1 60471U 24149D   26176.18494965  .00012782  00000+0  36462-3 0  9999","tle2":"2 60471  97.3802 258.2524 0002138 160.3945 199.7382 15.36183236103392"},{"id":"60533","name":"LEMUR-2-STELLA","tle1":"1 60533U 24149BT  26175.49447676  .00010269  00000+0  60250-3 0  9998","tle2":"2 60533  97.6737 257.9813 0001486  95.9838 264.1561 15.11941868101601"},{"id":"60536","name":"LEMUR-2-MARHISYAM","tle1":"1 60536U 24149BW  26176.20572484  .00011795  00000+0  70169-3 0  9992","tle2":"2 60536  97.6883 259.1534 0003365 103.6247 256.5358 15.11401407101697"},{"id":"60576","name":"LEMUR-2-AHMED-ASRAR","tle1":"1 60576U 24149DN  26176.16598370  .00014037  00000+0  80077-3 0  9994","tle2":"2 60576  97.7007 261.2370 0001134  24.8255 335.3030 15.12874742101776"},{"id":"60577","name":"LEMUR-2-LLOYD","tle1":"1 60577U 24149DP  26176.19686653  .00011554  00000+0  72655-3 0  9994","tle2":"2 60577  97.6745 257.3303 0005175 120.0067 240.1676 15.09376648101605"},{"id":"60578","name":"LEMUR-2-SQUIRRELCOMM","tle1":"1 60578U 24149DQ  26176.15587704  .00006772  00000+0  45329-3 0  9992","tle2":"2 60578  97.6718 257.0421 0005972  39.5945 320.5718 15.07235269101609"},{"id":"60579","name":"LEMUR-2-SIERRINI","tle1":"1 60579U 24149DR  26176.16468600  .00013425  00000+0  80431-3 0  9993","tle2":"2 60579  97.6846 258.7922 0006332 142.2598 217.9077 15.11099063101661"},{"id":"62694","name":"LEMUR-2-WILSON","tle1":"1 62694U 25009CP  26176.19268510  .00001790  00000+0  16810-3 0  9992","tle2":"2 62694  97.7026 254.5169 0003730  35.7287 324.4183 14.95197745 78559"},{"id":"62696","name":"LEMUR-2-STAR-FOX","tle1":"1 62696U 25009CR  26176.21737978  .00007144  00000+0  54081-3 0  9997","tle2":"2 62696  97.6953 257.7686 0004383  94.9923 265.1802 15.02602744 78768"},{"id":"62699","name":"LEMUR-2-ARIANNA","tle1":"1 62699U 25009CU  26175.48329128  .00006722  00000+0  50952-3 0  9996","tle2":"2 62699  97.6893 256.8082 0004769 100.8155 259.3607 15.02572324 78652"}]